#aV2022  9 24  0  0  0.00000000     288 DD+AD WGS84 FIT  NGA
## 2228 518400.00000000   300.00000000 59846 0.0000000000000
+   32     1  2  3  4  5  6  7  8  9 10 11 12 13 14 15 16 17
+         18 19 20 21 22 23 24 25 26 27 28 29 30 31 32  0  0
+          0  0  0  0  0  0  0  0  0  0  0  0  0  0  0  0  0
+          0  0  0  0  0  0  0  0  0  0  0  0  0  0  0  0  0
+          0  0  0  0  0  0  0  0  0  0  0  0  0  0  0  0  0
++         2  2  2  2  2  2  2  2  2  2  2  2  2  2  2  2  2
++         2  2  2  2  2  2  2  2  2  2  2  2  2  2  2  0  0
++         0  0  0  0  0  0  0  0  0  0  0  0  0  0  0  0  0
++         0  0  0  0  0  0  0  0  0  0  0  0  0  0  0  0  0
++         0  0  0  0  0  0  0  0  0  0  0  0  0  0  0  0  0
%c cc cc ccc ccc cccc cccc cccc cccc ccccc ccccc ccccc ccccc
%c cc cc ccc ccc cccc cccc cccc cccc ccccc ccccc ccccc ccccc
%f  0.0000000  0.000000000  0.00000000000  0.000000000000000
%f  0.0000000  0.000000000  0.00000000000  0.000000000000000
%i    0    0    0    0      0      0      0      0         0
%i    0    0    0    0      0      0      0      0         0
/*      NGA, ST. LOUIS,MO.                                  
/*   EPHEMERIS COMPUTED FROM 2 DAYS OF DATA                 
/*   EPOCHA v8 SMOOTHER                                     
/*   G2139 IERS2010 SATIGS SATAPC                           
*  2022  9 24 18 10  0.00000000
P  1 -13676.817678  20207.857526   9751.795283    278.382149                    
V  1   2219.722733 -12881.730208  29224.547296     -0.063987                    
P  2  14453.444481 -16058.711090 -14947.811020   -644.891366                    
V  2  -2743.582857  19928.951712 -22926.833732      0.013623                    
P  3 -20969.790206  12053.351132 -10974.161847   -356.015032                    
V  3 -13897.806819    800.902956  27857.311672     -0.054854                    
P  4 -10125.314933  11469.597837 -21703.413614   -113.838358                    
V  4 -17934.632444 -20936.192122  -2792.308958      0.057626                    
P  5  25893.972041  -6212.566573   -645.586089    -97.892606                    
V  5     80.880423   2732.531384 -31683.375008     -0.014326                    
P  6   9288.210646  14354.069387 -20241.470466    471.329648                    
V  6  -8923.163550  24212.493756  13107.147934      0.119700                    
P  7  -4694.507480  25475.291913   4930.131310    304.845464                    
V  7  -5073.097023   4473.416565 -31018.422204     -0.032711                    
P  8 -17088.269478   2433.692605  20241.097459    -85.986518                    
V  8 -16986.143819 -19294.434533 -11644.910884     -0.015637                    
P  9   1046.714396  19644.623400 -17904.896224   -291.935962                    
V  9 -16699.586180 -15339.878323 -17922.238659      0.048870                    
P 10 -10057.524889 -12617.153661  21304.064682     -4.693066                    
V 10  25905.771271  -6045.804725   8409.862433     -0.015933                    
P 11  14988.123266   3018.526908 -21714.982020    -19.180843                    
V 11  -9643.786359  25826.842003  -3100.476114     -0.033498                    
P 12  22022.990405 -10478.002879 -10658.706758   -283.506203                    
V 12  13357.202351    456.853520  27943.657648     -0.060236                    
P 13  19014.261257   7230.196318  17007.578782    393.715545                    
V 13  10987.699477  18923.907260 -19949.265576      0.071576                    
P 14   7573.311201  14067.267331  21240.067694   -101.056861                    
V 14 -26475.288938   5176.156104   5904.641896      0.030762                    
P 15  16952.922830  -4659.688677  19548.609882    -26.336129                    
V 15  18768.215024  17772.282934 -11482.926687      0.031122                    
P 16 -26049.440691  -1339.097427  -6443.358676   -524.953730                    
V 16   7411.116979  -2987.276014 -30213.875054     -0.009052                    
P 17  11744.445489  22767.242390   7323.863840    662.386547                    
V 17  -7083.461130  -5505.296935  30347.349874      0.036899                    
P 18   4703.401847 -25435.693846   5695.704590     37.487894                    
V 18   4714.278364  -6048.492187 -31003.578430     -0.129590                    
P 19  17508.444368  19835.553469  -3815.422001    215.044428                    
V 19    973.306167   4853.707340  31451.083836      0.050417                    
P 20  22642.920369   1740.525817 -13575.499589    483.755676                    
V 20 -15207.539312   8855.942133 -24441.079560     -0.031087                    
P 21 -15684.120978  12270.652139  17813.666788    159.010884                    
V 21   3130.186669 -21564.111110  18973.720931     -0.005401                    
P 22 -18538.884964 -18266.787020  -5328.234915    333.722612                    
V 22  -2312.829298  -7366.994411  30705.648104      0.068529                    
P 23   1875.249881 -15557.208991  21415.079154     -0.400271                    
V 23  26584.754002  -5839.522629  -6690.954399     -0.004453                    
P 24  14260.827969 -17490.479090  13344.607669    124.076775                    
V 24   -937.838321  17971.184588  24402.546112     -0.135141                    
P 25  11206.126095 -15780.142675 -18356.997026    375.500859                    
V 25  22671.412062  -3274.779385  17192.564785      0.040282                    
P 26 -21435.566941  -5543.884196 -14983.833083    229.884439                    
V 26  17519.785902  -7259.776556 -22185.431049      0.015593                    
P 27 -20947.624989  -9595.005233  13336.754919    207.649888                    
V 27 -10156.024729 -13899.653287 -25152.075358     -0.048386                    
P 28  16284.922363  10852.955095  18350.042962    335.862061                    
V 28 -22036.661722   4057.677516  17886.013470     -0.031389                    
P 29   1203.013368 -18910.611801 -18620.579703   -554.292472                    
V 29  15338.155802  17890.854609 -17299.646469     -0.031361                    
P 30   3586.601194  22048.739118  14266.101133   -537.127986                    
V 30  -8520.623365  16247.362447 -23368.811932     -0.001599                    
P 31 -10626.801549 -13309.464170 -20406.165825   -194.509425                    
V 31   9682.023240 -23876.646167  11061.421697     -0.013354                    
P 32 -15306.704895 -21400.704734   4478.131024   -243.090454                    
V 32   5642.238765   2256.727218  30911.170558     -0.115084                    
EOF
